STARLINK-11687 [DTC]
1 63555U 25075H   26061.16668981  .00296739  00000+0  12039-2 0  9995
2 63555  42.9925 198.3801 0009664 345.9078  22.1263 15.84601058  5973
